NORAD_CAT_ID,OBJECT_NAME,OBJECT_TYPE,EPOCH,MEAN_MOTION,ECCENTRICITY,INCLINATION,RA_OF_ASC_NODE,ARG_OF_PERICENTER,MEAN_ANOMALY,BSTAR,MEAN_MOTION_DOT,MEAN_MOTION_DDOT,TLE_LINE0,TLE_LINE1,TLE_LINE2,SEMIMAJOR_AXIS,PERIOD,APOGEE,PERIGEE,DECAYED
56809.0,STARLINK-6040,PAYLOAD,2023-10-06 14:00:01,15.12447066,0.0003216,70.0006,56.2228,277.2589,211.2974,-0.058754,-0.00945408,0.0,0 STARLINK-6040,1 56809U 23078AU  23279.58335648 -.00945408  00000-0 -58754-1 0  9995,2 56809  70.0006  56.2228 0003216 277.2589 211.2974 15.12447066  6109,6906.877,95.21,530.963,526.521,0.0
56809.0,STARLINK-6040,PAYLOAD,2023-10-06 22:00:01,15.11794397,0.0003187,70.0003,55.3639,281.7246,220.8311,-0.05933,-0.00938004,0.0,0 STARLINK-6040,1 56809U 23078AU  23279.91668981 -.00938004  00000-0 -59330-1 0  9996,2 56809  70.0003  55.3639 0003187 281.7246 220.8311 15.11794397  6000,6908.865,95.251,532.932,528.528,0.0
56809.0,STARLINK-6040,PAYLOAD,2023-10-07 04:00:00,15.11264643,0.0003246,70.0004,54.7206,276.3933,146.1025,-0.056446,-0.00883439,0.0,0 STARLINK-6040,1 56809U 23078AU  23280.16667824 -.00883439  00000-0 -56446-1 0  9996,2 56809  70.0004  54.7206 0003246 276.3933 146.1025 15.11264643 20445,6910.479,95.284,534.587,530.101,0.0
56809.0,STARLINK-6040,PAYLOAD,2023-10-07 14:00:01,15.10487375,0.0003223,70.0005,53.6493,277.5696,250.5815,-0.061737,-0.00940992,0.0,0 STARLINK-6040,1 56809U 23078AU  23280.58334491 -.00940992  00000-0 -61737-1 0  9990,2 56809  70.0005  53.6493 0003223 277.5696 250.5815 15.10487375  5994,6912.85,95.333,536.943,532.487,0.0
56809.0,STARLINK-6040,PAYLOAD,2023-10-07 20:00:01,15.09974299,0.0003362,70.0004,53.007,282.0125,164.9578,-0.059162,-0.00892731,0.0,0 STARLINK-6040,1 56809U 23078AU  23280.83334491 -.00892731  00000-0 -59162-1 0  9994,2 56809  70.0004  53.0070 0003362 282.0125 164.9578 15.09974299 20546,6914.415,95.366,538.605,533.956,0.0
56809.0,STARLINK-6040,PAYLOAD,2023-10-07 22:00:00,15.09838546,0.0003201,70.0002,52.7932,280.9828,258.8188,-0.062867,-0.00941155,0.0,0 STARLINK-6040,1 56809U 23078AU  23280.91667824 -.00941155  00000-0 -62867-1 0  9993,2 56809  70.0002  52.7932 0003201 280.9828 258.8188 15.09838546  6005,6914.83,95.374,538.908,534.481,0.0
56809.0,STARLINK-6040,PAYLOAD,2023-10-08 12:00:00,15.08709837,0.0003257,70.0006,51.2972,277.5345,190.7745,-0.066262,-0.00960082,0.0,0 STARLINK-6040,1 56809U 23078AU  23281.50001157 -.00960082  00000-0 -66262-1 0  9993,2 56809  70.0006  51.2972 0003257 277.5345 190.7745 15.08709837 20642,6918.278,95.446,542.397,537.89,0.0
56809.0,STARLINK-6040,PAYLOAD,2023-10-08 14:00:01,15.08528374,0.0003181,70.0005,51.0837,277.2382,283.5296,-0.06492,-0.00937747,0.0,0 STARLINK-6040,1 56809U 23078AU  23281.58334491 -.00937747  00000-0 -64920-1 0  9992,2 56809  70.0005  51.0837 0003181 277.2382 283.5296 15.08528374  5946,6918.833,95.457,542.899,538.497,0.0
56809.0,STARLINK-6040,PAYLOAD,2023-10-08 22:00:00,15.07883011,0.0003228,70.0002,50.2302,280.1576,289.912,-0.066604,-0.00944672,0.0,0 STARLINK-6040,1 56809U 23078AU  23281.91667824 -.00944672  00000-0 -66604-1 0  9994,2 56809  70.0002  50.2302 0003228 280.1576 289.9120 15.07883011  5993,6920.807,95.498,544.906,540.438,0.0
56809.0,STARLINK-6040,PAYLOAD,2023-10-09 06:00:02,15.0718711,0.000316,70.0003,49.3778,273.4408,305.2276,-0.062035,-0.00868946,0.0,0 STARLINK-6040,1 56809U 23078AU  23282.25002315 -.00868946  00000-0 -62035-1 0  9993,2 56809  70.0003  49.3778 0003160 273.4408 305.2276 15.07187110 20767,6922.937,95.542,546.99,542.615,0.0
56809.0,STARLINK-6040,PAYLOAD,2023-10-09 14:00:01,15.06569359,0.0003189,70.0006,48.526,276.5795,309.764,-0.068257,-0.00934875,0.0,0 STARLINK-6040,1 56809U 23078AU  23282.58334491 -.00934875  00000-0 -68257-1 0  9999,2 56809  70.0006  48.5260 0003189 276.5795 309.7640 15.06569359  5979,6924.83,95.581,548.903,544.486,0.0
56809.0,STARLINK-6040,PAYLOAD,2023-10-09 22:00:00,15.0592873,0.0003205,70.0003,47.6752,279.1842,314.1141,-0.070693,-0.00950314,0.0,0 STARLINK-6040,1 56809U 23078AU  23282.91667824 -.00950314  00000-0 -70693-1 0  9998,2 56809  70.0003  47.6752 0003205 279.1842 314.1141 15.05928730 20865,6926.793,95.622,550.878,546.438,0.0
56809.0,STARLINK-6040,PAYLOAD,2023-10-10 14:00:01,15.04610838,0.0003213,70.0007,45.9761,276.2855,328.5932,-0.071756,-0.00932379,0.0,0 STARLINK-6040,1 56809U 23078AU  23283.58334491 -.00932379  00000-0 -71756-1 0  9995,2 56809  70.0007  45.9761 0003213 276.2855 328.5932 15.04610838 20965,6930.838,95.706,554.929,550.476,0.0
56809.0,STARLINK-6040,PAYLOAD,2023-10-10 22:00:01,15.03973132,0.0003255,70.0005,45.1278,278.6029,330.9442,-0.074812,-0.00964916,0.0,0 STARLINK-6040,1 56809U 23078AU  23283.91668981 -.00964916  00000-0 -74812-1 0  9994,2 56809  70.0005  45.1278 0003255 278.6029 330.9442 15.03973132  5978,6932.797,95.746,556.918,552.405,0.0
56809.0,STARLINK-6040,PAYLOAD,2023-10-11 14:00:01,15.02650896,0.0003236,70.001,43.434,276.2573,340.1165,-0.075212,-0.00927775,0.0,0 STARLINK-6040,1 56809U 23078AU  23284.58334491 -.00927775  00000-0 -75212-1 0  9991,2 56809  70.0010  43.4340 0003236 276.2573 340.1165 15.02650896  5908,6936.863,95.831,560.973,556.483,0.0
56809.0,STARLINK-6040,PAYLOAD,2023-10-11 22:00:00,15.02017801,0.000326,70.0007,42.5883,278.348,340.2832,-0.079141,-0.009687,0.0,0 STARLINK-6040,1 56809U 23078AU  23284.91667824 -.00968700  00000-0 -79141-1 0  9995,2 56809  70.0007  42.5883 0003260 278.3480 340.2832 15.02017801 21164,6938.812,95.871,562.939,558.415,0.0
56809.0,STARLINK-6040,PAYLOAD,2023-10-12 14:00:01,15.00689554,0.0003237,70.0013,40.8997,276.7837,344.0445,-0.078466,-0.00919604,0.0,0 STARLINK-6040,1 56809U 23078AU  23285.58334491 -.00919604  00000-0 -78466-1 0  9998,2 56809  70.0013  40.8997 0003237 276.7837 344.0445 15.00689554 21261,6942.906,95.956,567.018,562.523,0.0
56809.0,STARLINK-6040,PAYLOAD,2023-10-12 22:00:01,15.00018925,0.0003307,70.0012,40.0564,279.045,341.7639,-0.073941,-0.00856158,0.0,0 STARLINK-6040,1 56809U 23078AU  23285.91668981 -.00856158  00000-0 -73941-1 0  9996,2 56809  70.0012  40.0564 0003307 279.0450 341.7639 15.00018925  5862,6944.975,95.999,569.137,564.543,0.0
56809.0,STARLINK-6040,PAYLOAD,2023-10-13 06:00:02,14.99386802,0.0003246,70.0016,39.2144,273.4317,346.5042,-0.021527,-0.0025475,0.0,0 STARLINK-6040,1 56809U 23078AU  23286.25002315 -.00254750  00000-0 -21527-1 0  9990,2 56809  70.0016  39.2144 0003246 273.4317 346.5042 14.99386802 21365,6946.927,96.039,571.047,566.537,0.0
56809.0,STARLINK-6040,PAYLOAD,2023-10-13 14:00:01,14.9925179,0.0003344,70.0017,38.3727,277.6633,340.8709,-0.080973,-0.00924577,0.0,0 STARLINK-6040,1 56809U 23078AU  23286.58334491 -.00924577  00000-0 -80973-1 0  9990,2 56809  70.0017  38.3727 0003344 277.6633 340.8709 14.99251790 21419,6947.344,96.048,571.532,566.886,0.0
56809.0,STARLINK-6040,PAYLOAD,2023-10-13 20:00:01,14.9861457,0.0003374,70.0015,37.7417,281.246,246.0326,-0.03933,-0.0044809,0.0,0 STARLINK-6040,1 56809U 23078AU  23286.83334491 -.00448090  00000-0 -39330-1 0  9990,2 56809  70.0015  37.7417 0003374 281.2460 246.0326 14.98614570 21452,6949.313,96.089,573.523,568.833,0.0
56809.0,STARLINK-6040,PAYLOAD,2023-10-13 22:00:00,14.98438031,0.0003354,70.0015,37.5314,280.9226,335.8284,-0.020234,-0.00234296,0.0,0 STARLINK-6040,1 56809U 23078AU  23286.91667824 -.00234296  00000-0 -20234-1 0  9992,2 56809  70.0015  37.5314 0003354 280.9226 335.8284 14.98438031  5919,6949.859,96.1,574.055,569.393,0.0
56809.0,STARLINK-6040,PAYLOAD,2023-10-14 04:00:00,14.98250779,0.0003426,70.0018,36.9011,276.5219,248.3888,0.0087038,0.00105119,0.0,0 STARLINK-6040,1 56809U 23078AU  23287.16667824  .00105119  00000-0  87038-2 0  9995,2 56809  70.0018  36.9011 0003426 276.5219 248.3888 14.98250779 21504,6950.438,96.112,574.684,569.922,0.0
56809.0,STARLINK-6040,PAYLOAD,2023-10-14 14:00:01,14.98316843,0.0003454,70.0019,35.851,280.5832,331.1999,0.00089378,0.00010584,0.0,0 STARLINK-6040,1 56809U 23078AU  23287.58335648  .00010584  00000-0  89378-3 0  9998,2 56809  70.0019  35.8510 0003454 280.5832 331.1999 14.98316843 21569,6950.234,96.108,574.499,569.698,0.0
56809.0,STARLINK-6040,PAYLOAD,2023-10-14 22:00:00,14.98349506,0.0003398,70.0017,35.0106,281.3737,327.8114,-0.0024868,-0.00029656,0.0,0 STARLINK-6040,1 56809U 23078AU  23287.91667824 -.00029656  00000-0 -24868-2 0  9993,2 56809  70.0017  35.0106 0003398 281.3737 327.8114 14.98349506  5969,6950.133,96.106,574.359,569.636,0.0
56809.0,STARLINK-6040,PAYLOAD,2023-10-15 14:00:01,14.98360985,0.000342,70.0021,33.3299,280.4405,323.7322,-0.0030867,-0.00036761,0.0,0 STARLINK-6040,1 56809U 23078AU  23288.58334491 -.00036761  00000-0 -30867-2 0  9999,2 56809  70.0021  33.3299 0003420 280.4405 323.7322 14.98360985  5900,6950.097,96.105,574.339,569.585,0.0
56809.0,STARLINK-6040,PAYLOAD,2023-10-15 20:00:01,14.98343834,0.000341,70.0018,32.6995,281.1172,231.2516,-0.0021969,-0.00026218,0.0,0 STARLINK-6040,1 56809U 23078AU  23288.83335648 -.00026218  00000-0 -21969-2 0  9991,2 56809  70.0018  32.6995 0003410 281.1172 231.2516 14.98343834 21752,6950.15,96.106,574.385,569.645,0.0
56809.0,STARLINK-6040,PAYLOAD,2023-10-15 22:00:00,14.98345429,0.0003373,70.0018,32.4894,279.4684,322.2104,-0.0033155,-0.00039448,0.0,0 STARLINK-6040,1 56809U 23078AU  23288.91667824 -.00039448  00000-0 -33155-2 0  9993,2 56809  70.0018  32.4894 0003373 279.4684 322.2104 14.98345429  5954,6950.145,96.106,574.354,569.666,0.0
56809.0,STARLINK-6040,PAYLOAD,2023-10-16 08:00:01,14.98347973,0.0003371,70.0022,31.439,273.6468,54.8765,0.00064031,7.559e-05,0.0,0 STARLINK-6040,1 56809U 23078AU  23289.33334491  .00007559  00000-0  64031-3 0  9995,2 56809  70.0022  31.4390 0003371 273.6468  54.8765 14.98347973 21824,6950.137,96.106,574.345,569.659,0.0
56809.0,STARLINK-6040,PAYLOAD,2023-10-16 14:00:01,14.9835212,0.0003419,70.0021,30.8087,277.7556,318.897,-0.0025933,-0.00030918,0.0,0 STARLINK-6040,1 56809U 23078AU  23289.58334491 -.00030918  00000-0 -25933-2 0  9996,2 56809  70.0021  30.8087 0003419 277.7556 318.8970 14.98352120  5918,6950.124,96.106,574.366,569.613,0.0
